{
"type": "FeatureCollection",
"name": "Layer_Wisata",
"crs": { "type": "name", "properties": { "name": "urn:ogc:def:crs:OGC:1.3:CRS84" } },
"features": [
{ "type": "Feature", "properties": { "Name": "Perkebunan Teh Nirmala", "FolderPath": "Keanekaragaman", "X": 106.512, "Y": -6.71601, "Foto": "C:\\Users\\ASUS\\Downloads\\KAB. BOGOR/tehnirmala.jpg", "Deskripsi": null }, "geometry": { "type": "Point", "coordinates": [ 106.512309800000082, -6.716014499999972, 0.0 ] } },
{ "type": "Feature", "properties": { "Name": "Curug Piit", "FolderPath": "Keanekaragaman", "X": 106.534, "Y": -6.71015, "Foto": "C:\\Users\\ASUS\\Downloads\\KAB. BOGOR/curugpiit.jpg", "Deskripsi": null }, "geometry": { "type": "Point", "coordinates": [ 106.534213, -6.710154, 0.0 ] } },
{ "type": "Feature", "properties": { "Name": "Situs Pasir Jambu", "FolderPath": "Keanekaragaman", "X": 106.546, "Y": -6.5685, "Foto": "C:\\Users\\ASUS\\Downloads\\KAB. BOGOR/pasirjambu.jpg", "Deskripsi": null }, "geometry": { "type": "Point", "coordinates": [ 106.546263300000078, -6.568502299999977, 0.0 ] } },
{ "type": "Feature", "properties": { "Name": "PLTA Karacak", "FolderPath": "Keanekaragaman", "X": 106.643, "Y": -6.61791, "Foto": "C:\\Users\\ASUS\\Downloads\\KAB. BOGOR/pltakracak.jpg", "Deskripsi": null }, "geometry": { "type": "Point", "coordinates": [ 106.642706100000055, -6.617909, 0.0 ] } },
{ "type": "Feature", "properties": { "Name": "Curug Lontar", "FolderPath": "Keanekaragaman", "X": 106.639, "Y": -6.63677, "Foto": "C:\\Users\\ASUS\\Downloads\\KAB. BOGOR/curuglontar.jpg", "Deskripsi": null }, "geometry": { "type": "Point", "coordinates": [ 106.638863, -6.636769399999935, 0.0 ] } },
{ "type": "Feature", "properties": { "Name": "Curug Cikoneng", "FolderPath": "Keanekaragaman", "X": 106.6, "Y": -6.66079, "Foto": "C:\\Users\\ASUS\\Downloads\\KAB. BOGOR/curugcikoneng.jpg", "Deskripsi": null }, "geometry": { "type": "Point", "coordinates": [ 106.599642, -6.660794199999941, 0.0 ] } },
{ "type": "Feature", "properties": { "Name": "Curug Puraseda", "FolderPath": "Keanekaragaman", "X": 106.598, "Y": -6.67841, "Foto": "C:\\Users\\ASUS\\Downloads\\KAB. BOGOR/curugpuraseda.jpg", "Deskripsi": null }, "geometry": { "type": "Point", "coordinates": [ 106.598327, -6.678412499999979, 0.0 ] } },
{ "type": "Feature", "properties": { "Name": "Camping Ground Sukamantri", "FolderPath": "Keanekaragaman", "X": 106.751, "Y": -6.67503, "Foto": "C:\\Users\\ASUS\\Downloads\\KAB. BOGOR/campingsukamantri.jpg", "Deskripsi": null }, "geometry": { "type": "Point", "coordinates": [ 106.751427300000046, -6.67503279999994, 0.0 ] } },
{ "type": "Feature", "properties": { "Name": "Curug Sukamantri", "FolderPath": "Keanekaragaman", "X": 106.752, "Y": -6.68283, "Foto": "C:\\Users\\ASUS\\Downloads\\KAB. BOGOR/curugsukamantri.jpg", "Deskripsi": null }, "geometry": { "type": "Point", "coordinates": [ 106.751750700000059, -6.682829699999957, 0.0 ] } },
{ "type": "Feature", "properties": { "Name": "Pura Agung Parahyangan Jagatkarta", "FolderPath": "Keanekaragaman", "X": 106.735, "Y": -6.66888, "Foto": "C:\\Users\\ASUS\\Downloads\\KAB. BOGOR/puraagung.jpg", "Deskripsi": null }, "geometry": { "type": "Point", "coordinates": [ 106.735460400000079, -6.668881499999941, 0.0 ] } },
{ "type": "Feature", "properties": { "Name": "Situs Pasir Kaca", "FolderPath": "Keanekaragaman", "X": 106.735, "Y": -6.67828, "Foto": "C:\\Users\\ASUS\\Downloads\\KAB. BOGOR/pasirkaca.jpg", "Deskripsi": null }, "geometry": { "type": "Point", "coordinates": [ 106.735102100000063, -6.678284299999973, 0.0 ] } },
{ "type": "Feature", "properties": { "Name": "Pemandian Air Panas Tarikolot", "FolderPath": "Keanekaragaman", "X": 106.723, "Y": -6.66181, "Foto": "C:\\Users\\ASUS\\Downloads\\KAB. BOGOR/tarikolot.jpg", "Deskripsi": null }, "geometry": { "type": "Point", "coordinates": [ 106.723161400000038, -6.661808599999972, 0.0 ] } },
{ "type": "Feature", "properties": { "Name": "Curug Luhur", "FolderPath": "Keanekaragaman", "X": 106.706, "Y": -6.66001, "Foto": "C:\\Users\\ASUS\\Downloads\\KAB. BOGOR/curugluhur.jpg", "Deskripsi": null }, "geometry": { "type": "Point", "coordinates": [ 106.705849800000067, -6.660012299999948, 0.0 ] } },
{ "type": "Feature", "properties": { "Name": "Situs Kuta Gegelang", "FolderPath": "Keanekaragaman", "X": 106.695, "Y": -6.66884, "Foto": "C:\\Users\\ASUS\\Downloads\\KAB. BOGOR/gegelang.jpg", "Deskripsi": null }, "geometry": { "type": "Point", "coordinates": [ 106.695214400000054, -6.668840599999953, 0.0 ] } },
{ "type": "Feature", "properties": { "Name": "Kawah Ratu", "FolderPath": "Keanekaragaman", "X": 106.713, "Y": -6.71748, "Foto": "C:\\Users\\ASUS\\Downloads\\KAB. BOGOR/kawahratu.jpg", "Deskripsi": null }, "geometry": { "type": "Point", "coordinates": [ 106.713097900000037, -6.717483799999968, 0.0 ] } },
{ "type": "Feature", "properties": { "Name": "Kampung Salaka", "FolderPath": "Lokasi Wisata", "X": 106.734, "Y": -6.67223, "Foto": "C:\\Users\\ASUS\\Downloads\\KAB. BOGOR/kampungsalaka.jpg", "Deskripsi": null }, "geometry": { "type": "Point", "coordinates": [ 106.733812600000078, -6.672231199999942, 0.0 ] } },
{ "type": "Feature", "properties": { "Name": "Situ Tamansari", "FolderPath": "Lokasi Wisata", "X": 106.754, "Y": -6.65372, "Foto": "C:\\Users\\ASUS\\Downloads\\KAB. BOGOR/situtamansari.jpg", "Deskripsi": null }, "geometry": { "type": "Point", "coordinates": [ 106.75386, -6.653724799999964, 0.0 ] } },
{ "type": "Feature", "properties": { "Name": "Nambo Camping Ground", "FolderPath": "Lokasi Wisata", "X": 106.734, "Y": -6.63784, "Foto": "C:\\Users\\ASUS\\Downloads\\KAB. BOGOR/nambocamping.jpg", "Deskripsi": null }, "geometry": { "type": "Point", "coordinates": [ 106.734016300000064, -6.637842599999942, 0.0 ] } },
{ "type": "Feature", "properties": { "Name": "Taman Kupu-Kupu", "FolderPath": "Lokasi Wisata", "X": 106.724, "Y": -6.65572, "Foto": "C:\\Users\\ASUS\\Downloads\\KAB. BOGOR/tamankupu.jpg", "Deskripsi": null }, "geometry": { "type": "Point", "coordinates": [ 106.724211900000057, -6.65572, 0.0 ] } },
{ "type": "Feature", "properties": { "Name": "Kampung Budaya Sindang Barang", "FolderPath": "Lokasi Wisata", "X": 106.762, "Y": -6.63019, "Foto": "C:\\Users\\ASUS\\Downloads\\KAB. BOGOR/kampungsinbad.jpg", "Deskripsi": null }, "geometry": { "type": "Point", "coordinates": [ 106.76172310000004, -6.630187899999953, 0.0 ] } },
{ "type": "Feature", "properties": { "Name": "Kampung Horta Ciapus", "FolderPath": "Lokasi Wisata", "X": 106.742, "Y": -6.64944, "Foto": "C:\\Users\\ASUS\\Downloads\\KAB. BOGOR/kampunghorta.jpg", "Deskripsi": null }, "geometry": { "type": "Point", "coordinates": [ 106.742145300000061, -6.649440499999969, 0.0 ] } },
{ "type": "Feature", "properties": { "Name": "Highland Park Resort ", "FolderPath": "Lokasi Wisata", "X": 106.729, "Y": -6.65873, "Foto": "C:\\Users\\ASUS\\Downloads\\KAB. BOGOR/highland.jpg", "Deskripsi": null }, "geometry": { "type": "Point", "coordinates": [ 106.729210800000033, -6.658735, 0.0 ] } },
{ "type": "Feature", "properties": { "Name": "Perkebunan Teh Cianten", "FolderPath": "Geosite Cianten", "X": 106.604, "Y": -6.72338, "Foto": "C:\\Users\\ASUS\\Downloads\\KAB. BOGOR/tehcianten.jpg", "Deskripsi": null }, "geometry": { "type": "Point", "coordinates": [ 106.604052400000057, -6.723375199999964, 0.0 ] } },
{ "type": "Feature", "properties": { "Name": "Panorama Pasir Ipis", "FolderPath": "Geosite Cianten", "X": 106.625, "Y": -6.65939, "Foto": "C:\\Users\\ASUS\\Downloads\\KAB. BOGOR/pasiripis.jpg", "Deskripsi": null }, "geometry": { "type": "Point", "coordinates": [ 106.624808600000051, -6.65939149999997, 0.0 ] } },
{ "type": "Feature", "properties": { "Name": "Curug Cipeuteuy", "FolderPath": "Geosite Cibalay", "X": 106.713, "Y": -6.67127, "Foto": "C:\\Users\\ASUS\\Downloads\\KAB. BOGOR/curugcipeuteuy.jpg", "Deskripsi": null }, "geometry": { "type": "Point", "coordinates": [ 106.71324750000008, -6.671273499999927, 0.0 ] } },
{ "type": "Feature", "properties": { "Name": "Camping Ground", "FolderPath": "Geosite Cibalay", "X": 106.712, "Y": -6.67045, "Foto": "C:\\Users\\ASUS\\Downloads\\KAB. BOGOR/campingarcadomas.jpg", "Deskripsi": null }, "geometry": { "type": "Point", "coordinates": [ 106.711885800000061, -6.670451399999934, 0.0 ] } },
{ "type": "Feature", "properties": { "Name": "Situs Cibalay", "FolderPath": "Geosite Cibalay", "X": 106.71, "Y": -6.67138, "Foto": "C:\\Users\\ASUS\\Downloads\\KAB. BOGOR/campingarcadomas.jpg", "Deskripsi": null }, "geometry": { "type": "Point", "coordinates": [ 106.709881400000086, -6.671383599999956, 0.0 ] } },
{ "type": "Feature", "properties": { "Name": "Panorama Pabangbon", "FolderPath": "Geosite Pabangbon", "X": 106.594, "Y": -6.61873, "Foto": "C:\\Users\\ASUS\\Downloads\\KAB. BOGOR/panoramapabangbon.jpg", "Deskripsi": null }, "geometry": { "type": "Point", "coordinates": [ 106.593820700000038, -6.618727599999943, 0.0 ] } },
{ "type": "Feature", "properties": { "Name": "Bukit Bintang", "FolderPath": "Geosite Pabangbon", "X": 106.614, "Y": -6.60567, "Foto": "C:\\Users\\ASUS\\Downloads\\KAB. BOGOR/bukitbintang.jpg", "Deskripsi": null }, "geometry": { "type": "Point", "coordinates": [ 106.613750400000072, -6.605668099999946, 0.0 ] } },
{ "type": "Feature", "properties": { "Name": "Curug Sarebu", "FolderPath": "Geosite Pamijahan", "X": 106.683, "Y": -6.70944, "Foto": "C:\\Users\\ASUS\\Downloads\\KAB. BOGOR/curugseribu.jpg", "Deskripsi": null }, "geometry": { "type": "Point", "coordinates": [ 106.683213, -6.709439199999963, 0.0 ] } },
{ "type": "Feature", "properties": { "Name": "Curug Cigamea", "FolderPath": "Geosite Pamijahan", "X": 106.689, "Y": -6.69622, "Foto": "C:\\Users\\ASUS\\Downloads\\KAB. BOGOR/curugcigamea.jpg", "Deskripsi": null }, "geometry": { "type": "Point", "coordinates": [ 106.688629500000047, -6.696219, 0.0 ] } },
{ "type": "Feature", "properties": { "Name": "Curug Ngumpet", "FolderPath": "Geosite Pamijahan", "X": 106.692, "Y": -6.69335, "Foto": "C:\\Users\\ASUS\\Downloads\\KAB. BOGOR/curugngumpet.jpg", "Deskripsi": null }, "geometry": { "type": "Point", "coordinates": [ 106.691915700000038, -6.693347199999948, 0.0 ] } },
{ "type": "Feature", "properties": { "Name": "Curug Pangeran", "FolderPath": "Geosite Pamijahan", "X": 106.691, "Y": -6.69778, "Foto": "C:\\Users\\ASUS\\Downloads\\KAB. BOGOR/curugpangeran.jpg", "Deskripsi": null }, "geometry": { "type": "Point", "coordinates": [ 106.69146580000006, -6.697778199999959, 0.0 ] } },
{ "type": "Feature", "properties": { "Name": "Curug Batu Ampar", "FolderPath": "Geosite Pamijahan", "X": 106.686, "Y": -6.68862, "Foto": "C:\\Users\\ASUS\\Downloads\\KAB. BOGOR/curugbatuampar.jpg", "Deskripsi": null }, "geometry": { "type": "Point", "coordinates": [ 106.686434200000065, -6.688623799999959, 0.0 ] } },
{ "type": "Feature", "properties": { "Name": "Rangoon Hills", "FolderPath": "Geosite Pamijahan", "X": 106.693, "Y": -6.69771, "Foto": "C:\\Users\\ASUS\\Downloads\\KAB. BOGOR/rangoonhills.jpg", "Deskripsi": null }, "geometry": { "type": "Point", "coordinates": [ 106.692938900000058, -6.697711399999946, 0.0 ] } },
{ "type": "Feature", "properties": { "Name": "Puncak Mustika Manik", "FolderPath": "Geosite Pamijahan", "X": 106.674, "Y": -6.68744, "Foto": "C:\\Users\\ASUS\\Downloads\\KAB. BOGOR/puncakmanik.jpg", "Deskripsi": null }, "geometry": { "type": "Point", "coordinates": [ 106.674400200000036, -6.687439599999948, 0.0 ] } },
{ "type": "Feature", "properties": { "Name": "Air Panas Ciparay", "FolderPath": "Geosite Pamijahan", "X": 106.676, "Y": -6.69724, "Foto": "C:\\Users\\ASUS\\Downloads\\KAB. BOGOR/pemandianciparay.jpg", "Deskripsi": null }, "geometry": { "type": "Point", "coordinates": [ 106.67615150000006, -6.697242699999947, 0.0 ] } },
{ "type": "Feature", "properties": { "Name": "Curug Sawer", "FolderPath": "Geosite Panenjoan", "X": 106.531, "Y": -6.69054, "Foto": "C:\\Users\\ASUS\\Downloads\\KAB. BOGOR/curugsawer.jpg", "Deskripsi": null }, "geometry": { "type": "Point", "coordinates": [ 106.531057400000066, -6.69054269999998, 0.0 ] } },
{ "type": "Feature", "properties": { "Name": "Curug Citamiang", "FolderPath": "Geosite Panenjoan", "X": 106.52, "Y": -6.68541, "Foto": "C:\\Users\\ASUS\\Downloads\\KAB. BOGOR/curugcitamiang.jpg", "Deskripsi": null }, "geometry": { "type": "Point", "coordinates": [ 106.520023800000047, -6.685414299999934, 0.0 ] } },
{ "type": "Feature", "properties": { "Name": "Panorama Malasari", "FolderPath": "Geosite Panenjoan", "X": 106.521, "Y": -6.6794, "Foto": "C:\\Users\\ASUS\\Downloads\\KAB. BOGOR/malasari.jpg", "Deskripsi": null }, "geometry": { "type": "Point", "coordinates": [ 106.521122400000081, -6.679399299999943, 0.0 ] } },
{ "type": "Feature", "properties": { "Name": "Museum Tambang", "FolderPath": "Geosite Pongkor", "X": 106.567, "Y": -6.66202, "Foto": "C:\\Users\\ASUS\\Downloads\\KAB. BOGOR/tambang.jpg", "Deskripsi": null }, "geometry": { "type": "Point", "coordinates": [ 106.566645700000038, -6.662017499999934, 0.0 ] } },
{ "type": "Feature", "properties": { "Name": "Kawasan Wisata Cikaret", "FolderPath": "Geosite Pongkor", "X": 106.569, "Y": -6.645, "Foto": "C:\\Users\\ASUS\\Downloads\\KAB. BOGOR/kawaci.jpg", "Deskripsi": null }, "geometry": { "type": "Point", "coordinates": [ 106.569052, -6.645002199999965, 0.0 ] } },
{ "type": "Feature", "properties": { "Name": "Curug Cikaung", "FolderPath": "Geosite Pongkor", "X": 106.564, "Y": -6.62993, "Foto": "C:\\Users\\ASUS\\Downloads\\KAB. BOGOR/curugcikaung.jpg", "Deskripsi": null }, "geometry": { "type": "Point", "coordinates": [ 106.563716600000078, -6.629934699999978, 0.0 ] } },
{ "type": "Feature", "properties": { "Name": "Curug Ciampea", "FolderPath": "Geosite Tenjolaya", "X": 106.7, "Y": -6.68666, "Foto": "C:\\Users\\ASUS\\Downloads\\KAB. BOGOR/curugciampea.jpg", "Deskripsi": null }, "geometry": { "type": "Point", "coordinates": [ 106.699897800000087, -6.686659599999928, 0.0 ] } },
{ "type": "Feature", "properties": { "Name": "Curug Padalarang", "FolderPath": "Geosite Tenjolaya", "X": 106.704, "Y": -6.67616, "Foto": "C:\\Users\\ASUS\\Downloads\\KAB. BOGOR/curugpadalarang.jpg", "Deskripsi": null }, "geometry": { "type": "Point", "coordinates": [ 106.703907, -6.67616309999994, 0.0 ] } },
{ "type": "Feature", "properties": { "Name": "Curug Ciputri", "FolderPath": "Geosite Tenjolaya", "X": 106.707, "Y": -6.67625, "Foto": "C:\\Users\\ASUS\\Downloads\\KAB. BOGOR/curugciputri.jpg", "Deskripsi": null }, "geometry": { "type": "Point", "coordinates": [ 106.706946900000048, -6.67625, 0.0 ] } }
]
}
